[
    {
        "CCSDS_OMM_VERS": "3.0",
        "COMMENT": "GENERATED VIA SPACE-TRACK.ORG API",
        "CREATION_DATE": "2024-08-10T22:56:16",
        "ORIGINATOR": "18 SPCS",
        "OBJECT_NAME": "SL-16 DEB",
        "OBJECT_ID": "1992-093AT",
        "CENTER_NAME": "EARTH",
        "REF_FRAME": "TEME",
        "TIME_SYSTEM": "UTC",
        "MEAN_ELEMENT_THEORY": "SGP4",
        "EPOCH": "2024-08-10T21:03:44.910432",
        "MEAN_MOTION": "13.92649043",
        "ECCENTRICITY": "0.01416790",
        "INCLINATION": "71.1452",
        "RA_OF_ASC_NODE": "106.8799",
        "ARG_OF_PERICENTER": "121.8369",
        "MEAN_ANOMALY": "317.0130",
        "EPHEMERIS_TYPE": "0",
        "CLASSIFICATION_TYPE": "U",
        "NORAD_CAT_ID": "22354",
        "ELEMENT_SET_NO": "999",
        "REV_AT_EPOCH": "60449",
        "BSTAR": "0.00033898000000",
        "MEAN_MOTION_DOT": "0.00000432",
        "MEAN_MOTION_DDOT": "0.0000000000000",
        "SEMIMAJOR_AXIS": "7297.499",
        "PERIOD": "103.400",
        "APOAPSIS": "1022.754",
        "PERIAPSIS": "815.974",
        "OBJECT_TYPE": "DEBRIS",
        "RCS_SIZE": "MEDIUM",
        "COUNTRY_CODE": "CIS",
        "LAUNCH_DATE": "1992-12-25",
        "SITE": "TTMTR",
        "DECAY_DATE": null,
        "FILE": "4427602",
        "GP_ID": "264738588",
        "TLE_LINE0": "0 SL-16 DEB",
        "TLE_LINE1": "1 22354U 92093AT  24223.87760313  .00000432  00000-0  33898-3 0  9990",
        "TLE_LINE2": "2 22354  71.1452 106.8799 0141679 121.8369 317.0130 13.92649043604495"
    },
    {
        "CCSDS_OMM_VERS": "3.0",
        "COMMENT": "GENERATED VIA SPACE-TRACK.ORG API",
        "CREATION_DATE": "2024-08-10T22:26:16",
        "ORIGINATOR": "18 SPCS",
        "OBJECT_NAME": "STARLINK-1673",
        "OBJECT_ID": "2020-062C",
        "CENTER_NAME": "EARTH",
        "REF_FRAME": "TEME",
        "TIME_SYSTEM": "UTC",
        "MEAN_ELEMENT_THEORY": "SGP4",
        "EPOCH": "2024-08-10T21:03:43.470144",
        "MEAN_MOTION": "15.11049655",
        "ECCENTRICITY": "0.00023940",
        "INCLINATION": "53.0541",
        "RA_OF_ASC_NODE": "80.4603",
        "ARG_OF_PERICENTER": "122.9846",
        "MEAN_ANOMALY": "237.1376",
        "EPHEMERIS_TYPE": "0",
        "CLASSIFICATION_TYPE": "U",
        "NORAD_CAT_ID": "46327",
        "ELEMENT_SET_NO": "999",
        "REV_AT_EPOCH": "21771",
        "BSTAR": "0.00386770000000",
        "MEAN_MOTION_DOT": "0.00065736",
        "MEAN_MOTION_DDOT": "0.0000000000000",
        "SEMIMAJOR_AXIS": "6911.135",
        "PERIOD": "95.298",
        "APOAPSIS": "534.654",
        "PERIAPSIS": "531.345",
        "OBJECT_TYPE": "PAYLOAD",
        "RCS_SIZE": "LARGE",
        "COUNTRY_CODE": "US",
        "LAUNCH_DATE": "2020-09-03",
        "SITE": "AFETR",
        "DECAY_DATE": null,
        "FILE": "4427224",
        "GP_ID": "264729961",
        "TLE_LINE0": "0 STARLINK-1673",
        "TLE_LINE1": "1 46327U 20062C   24223.87758646  .00065736  00000-0  38677-2 0  9996",
        "TLE_LINE2": "2 46327  53.0541  80.4603 0002394 122.9846 237.1376 15.11049655217717"
    },
    {
        "CCSDS_OMM_VERS": "3.0",
        "COMMENT": "GENERATED VIA SPACE-TRACK.ORG API",
        "CREATION_DATE": "2024-08-10T22:36:16",
        "ORIGINATOR": "18 SPCS",
        "OBJECT_NAME": "COSMOS 952",
        "OBJECT_ID": "1977-088A",
        "CENTER_NAME": "EARTH",
        "REF_FRAME": "TEME",
        "TIME_SYSTEM": "UTC",
        "MEAN_ELEMENT_THEORY": "SGP4",
        "EPOCH": "2024-08-10T21:03:41.628096",
        "MEAN_MOTION": "13.83679639",
        "ECCENTRICITY": "0.00627080",
        "INCLINATION": "64.9356",
        "RA_OF_ASC_NODE": "87.3689",
        "ARG_OF_PERICENTER": "246.7133",
        "MEAN_ANOMALY": "112.7318",
        "EPHEMERIS_TYPE": "0",
        "CLASSIFICATION_TYPE": "U",
        "NORAD_CAT_ID": "10358",
        "ELEMENT_SET_NO": "999",
        "REV_AT_EPOCH": "37000",
        "BSTAR": "0.00005079000000",
        "MEAN_MOTION_DOT": "-0.00000032",
        "MEAN_MOTION_DDOT": "0.0000000000000",
        "SEMIMAJOR_AXIS": "7329.001",
        "PERIOD": "104.070",
        "APOAPSIS": "996.825",
        "PERIAPSIS": "904.908",
        "OBJECT_TYPE": "PAYLOAD",
        "RCS_SIZE": "LARGE",
        "COUNTRY_CODE": "CIS",
        "LAUNCH_DATE": "1977-09-16",
        "SITE": "TTMTR",
        "DECAY_DATE": null,
        "FILE": "4427391",
        "GP_ID": "264734832",
        "TLE_LINE0": "0 COSMOS 952",
        "TLE_LINE1": "1 10358U 77088A   24223.87756514 -.00000032  00000-0  50790-4 0  9994",
        "TLE_LINE2": "2 10358  64.9356  87.3689 0062708 246.7133 112.7318 13.83679639370000"
    },
    {
        "CCSDS_OMM_VERS": "3.0",
        "COMMENT": "GENERATED VIA SPACE-TRACK.ORG API",
        "CREATION_DATE": "2024-08-10T22:46:31",
        "ORIGINATOR": "18 SPCS",
        "OBJECT_NAME": "STARLINK-6118",
        "OBJECT_ID": "2023-090F",
        "CENTER_NAME": "EARTH",
        "REF_FRAME": "TEME",
        "TIME_SYSTEM": "UTC",
        "MEAN_ELEMENT_THEORY": "SGP4",
        "EPOCH": "2024-08-10T21:03:41.046624",
        "MEAN_MOTION": "15.02552902",
        "ECCENTRICITY": "0.00014380",
        "INCLINATION": "43.0039",
        "RA_OF_ASC_NODE": "163.6787",
        "ARG_OF_PERICENTER": "261.9042",
        "MEAN_ANOMALY": "98.1637",
        "EPHEMERIS_TYPE": "0",
        "CLASSIFICATION_TYPE": "U",
        "NORAD_CAT_ID": "57106",
        "ELEMENT_SET_NO": "999",
        "REV_AT_EPOCH": "6265",
        "BSTAR": "0.00012288000000",
        "MEAN_MOTION_DOT": "0.00001457",
        "MEAN_MOTION_DDOT": "0.0000000000000",
        "SEMIMAJOR_AXIS": "6937.165",
        "PERIOD": "95.837",
        "APOAPSIS": "560.027",
        "PERIAPSIS": "558.032",
        "OBJECT_TYPE": "PAYLOAD",
        "RCS_SIZE": "LARGE",
        "COUNTRY_CODE": "US",
        "LAUNCH_DATE": "2023-06-23",
        "SITE": "AFETR",
        "DECAY_DATE": null,
        "FILE": "4427541",
        "GP_ID": "264738116",
        "TLE_LINE0": "0 STARLINK-6118",
        "TLE_LINE1": "1 57106U 23090F   24223.87755841  .00001457  00000-0  12288-3 0  9992",
        "TLE_LINE2": "2 57106  43.0039 163.6787 0001438 261.9042  98.1637 15.02552902 62652"
    },
    {
        "CCSDS_OMM_VERS": "3.0",
        "COMMENT": "GENERATED VIA SPACE-TRACK.ORG API",
        "CREATION_DATE": "2024-08-10T22:26:16",
        "ORIGINATOR": "18 SPCS",
        "OBJECT_NAME": "AQUA",
        "OBJECT_ID": "2002-022A",
        "CENTER_NAME": "EARTH",
        "REF_FRAME": "TEME",
        "TIME_SYSTEM": "UTC",
        "MEAN_ELEMENT_THEORY": "SGP4",
        "EPOCH": "2024-08-10T21:03:40.169664",
        "MEAN_MOTION": "14.59597027",
        "ECCENTRICITY": "0.00010430",
        "INCLINATION": "98.3325",
        "RA_OF_ASC_NODE": "173.4689",
        "ARG_OF_PERICENTER": "57.3896",
        "MEAN_ANOMALY": "6.0345",
        "EPHEMERIS_TYPE": "0",
        "CLASSIFICATION_TYPE": "U",
        "NORAD_CAT_ID": "27424",
        "ELEMENT_SET_NO": "999",
        "REV_AT_EPOCH": "18469",
        "BSTAR": "0.00080326000000",
        "MEAN_MOTION_DOT": "0.00003774",
        "MEAN_MOTION_DDOT": "0.0000000000000",
        "SEMIMAJOR_AXIS": "7072.612",
        "PERIOD": "98.657",
        "APOAPSIS": "695.215",
        "PERIAPSIS": "693.740",
        "OBJECT_TYPE": "PAYLOAD",
        "RCS_SIZE": "LARGE",
        "COUNTRY_CODE": "US",
        "LAUNCH_DATE": "2002-05-04",
        "SITE": "AFWTR",
        "DECAY_DATE": null,
        "FILE": "4427173",
        "GP_ID": "264731024",
        "TLE_LINE0": "0 AQUA",
        "TLE_LINE1": "1 27424U 02022A   24223.87754826  .00003774  00000-0  80326-3 0  9998",
        "TLE_LINE2": "2 27424  98.3325 173.4689 0001043  57.3896   6.0345 14.59597027184690"
    },
    {
        "CCSDS_OMM_VERS": "3.0",
        "COMMENT": "GENERATED VIA SPACE-TRACK.ORG API",
        "CREATION_DATE": "2024-08-10T22:46:31",
        "ORIGINATOR": "18 SPCS",
        "OBJECT_NAME": "FENGYUN 1C DEB",
        "OBJECT_ID": "1999-025MW",
        "CENTER_NAME": "EARTH",
        "REF_FRAME": "TEME",
        "TIME_SYSTEM": "UTC",
        "MEAN_ELEMENT_THEORY": "SGP4",
        "EPOCH": "2024-08-10T21:03:37.213920",
        "MEAN_MOTION": "14.04532278",
        "ECCENTRICITY": "0.00725430",
        "INCLINATION": "98.8085",
        "RA_OF_ASC_NODE": "223.0041",
        "ARG_OF_PERICENTER": "215.0846",
        "MEAN_ANOMALY": "217.2106",
        "EPHEMERIS_TYPE": "0",
        "CLASSIFICATION_TYPE": "U",
        "NORAD_CAT_ID": "30021",
        "ELEMENT_SET_NO": "999",
        "REV_AT_EPOCH": "90080",
        "BSTAR": "0.00043011000000",
        "MEAN_MOTION_DOT": "0.00000660",
        "MEAN_MOTION_DDOT": "0.0000000000000",
        "SEMIMAJOR_AXIS": "7256.280",
        "PERIOD": "102.525",
        "APOAPSIS": "930.784",
        "PERIAPSIS": "825.506",
        "OBJECT_TYPE": "DEBRIS",
        "RCS_SIZE": "SMALL",
        "COUNTRY_CODE": "PRC",
        "LAUNCH_DATE": "1999-05-10",
        "SITE": "TSC",
        "DECAY_DATE": null,
        "FILE": "4427500",
        "GP_ID": "264736695",
        "TLE_LINE0": "0 FENGYUN 1C DEB",
        "TLE_LINE1": "1 30021U 99025MW  24223.87751405  .00000660  00000-0  43011-3 0  9995",
        "TLE_LINE2": "2 30021  98.8085 223.0041 0072543 215.0846 217.2106 14.04532278900807"
    }
]